CCSDS_OMM_VERS = 2.0
CREATION_DATE  = 
ORIGINATOR     = 

OBJECT_NAME    = STARLINK-36390
OBJECT_ID      = 2026-035H
CENTER_NAME    = EARTH
REF_FRAME      = TEME
TIME_SYSTEM    = UTC
MEAN_ELEMENT_THEORY = SGP/SGP4

EPOCH          = 2026-03-10T20:00:00.999360
MEAN_MOTION    = 15.84775683
ECCENTRICITY   = .0001245
INCLINATION    = 97.2712
RA_OF_ASC_NODE = 2.2430
ARG_OF_PERICENTER = 92.1122
MEAN_ANOMALY   = 168.7218

EPHEMERIS_TYPE = 0
CLASSIFICATION_TYPE = U
NORAD_CAT_ID   = 67886
ELEMENT_SET_NO = 999
REV_AT_EPOCH   = 399
BSTAR          = -.57367E-2
MEAN_MOTION_DOT = -.1180797E-1
MEAN_MOTION_DDOT = 0

CCSDS_OMM_VERS = 2.0
CREATION_DATE  = 
ORIGINATOR     = 

OBJECT_NAME    = STARLINK-36368
OBJECT_ID      = 2026-035J
CENTER_NAME    = EARTH
REF_FRAME      = TEME
TIME_SYSTEM    = UTC
MEAN_ELEMENT_THEORY = SGP/SGP4

EPOCH          = 2026-03-10T20:00:00.999360
MEAN_MOTION    = 15.84759952
ECCENTRICITY   = .0001195
INCLINATION    = 97.2710
RA_OF_ASC_NODE = 2.2447
ARG_OF_PERICENTER = 88.4805
MEAN_ANOMALY   = 176.9887

EPHEMERIS_TYPE = 0
CLASSIFICATION_TYPE = U
NORAD_CAT_ID   = 67887
ELEMENT_SET_NO = 999
REV_AT_EPOCH   = 394
BSTAR          = -.60146E-2
MEAN_MOTION_DOT = -.1230812E-1
MEAN_MOTION_DDOT = 0

CCSDS_OMM_VERS = 2.0
CREATION_DATE  = 
ORIGINATOR     = 

OBJECT_NAME    = STARLINK-36801
OBJECT_ID      = 2026-035K
CENTER_NAME    = EARTH
REF_FRAME      = TEME
TIME_SYSTEM    = UTC
MEAN_ELEMENT_THEORY = SGP/SGP4

EPOCH          = 2026-03-10T20:00:00.999360
MEAN_MOTION    = 15.84739408
ECCENTRICITY   = .0001282
INCLINATION    = 97.2704
RA_OF_ASC_NODE = 2.2464
ARG_OF_PERICENTER = 100.3589
MEAN_ANOMALY   = 169.6922

EPHEMERIS_TYPE = 0
CLASSIFICATION_TYPE = U
NORAD_CAT_ID   = 67888
ELEMENT_SET_NO = 999
REV_AT_EPOCH   = 394
BSTAR          = -.62516E-2
MEAN_MOTION_DOT = -.1272686E-1
MEAN_MOTION_DDOT = 0

CCSDS_OMM_VERS = 2.0
CREATION_DATE  = 
ORIGINATOR     = 

OBJECT_NAME    = STARLINK-36372
OBJECT_ID      = 2026-035L
CENTER_NAME    = EARTH
REF_FRAME      = TEME
TIME_SYSTEM    = UTC
MEAN_ELEMENT_THEORY = SGP/SGP4

EPOCH          = 2026-03-10T20:00:00.999360
MEAN_MOTION    = 15.84670897
ECCENTRICITY   = .0001283
INCLINATION    = 97.2693
RA_OF_ASC_NODE = 2.2494
ARG_OF_PERICENTER = 99.0111
MEAN_ANOMALY   = 180.0801

EPHEMERIS_TYPE = 0
CLASSIFICATION_TYPE = U
NORAD_CAT_ID   = 67889
ELEMENT_SET_NO = 999
REV_AT_EPOCH   = 394
BSTAR          = -.64155E-2
MEAN_MOTION_DOT = -.1298336E-1
MEAN_MOTION_DDOT = 0

CCSDS_OMM_VERS = 2.0
CREATION_DATE  = 
ORIGINATOR     = 

OBJECT_NAME    = STARLINK-36363
OBJECT_ID      = 2026-035M
CENTER_NAME    = EARTH
REF_FRAME      = TEME
TIME_SYSTEM    = UTC
MEAN_ELEMENT_THEORY = SGP/SGP4

EPOCH          = 2026-03-10T20:00:00.999360
MEAN_MOTION    = 15.84654080
ECCENTRICITY   = .0001396
INCLINATION    = 97.2703
RA_OF_ASC_NODE = 2.2486
ARG_OF_PERICENTER = 93.8894
MEAN_ANOMALY   = 180.9589

EPHEMERIS_TYPE = 0
CLASSIFICATION_TYPE = U
NORAD_CAT_ID   = 67890
ELEMENT_SET_NO = 999
REV_AT_EPOCH   = 394
BSTAR          = -.63443E-2
MEAN_MOTION_DOT = -.1284764E-1
MEAN_MOTION_DDOT = 0

CCSDS_OMM_VERS = 2.0
CREATION_DATE  = 
ORIGINATOR     = 

OBJECT_NAME    = STARLINK-36816
OBJECT_ID      = 2026-035N
CENTER_NAME    = EARTH
REF_FRAME      = TEME
TIME_SYSTEM    = UTC
MEAN_ELEMENT_THEORY = SGP/SGP4

EPOCH          = 2026-03-10T20:00:00.999360
MEAN_MOTION    = 15.83632831
ECCENTRICITY   = .0001257
INCLINATION    = 97.2667
RA_OF_ASC_NODE = 2.2725
ARG_OF_PERICENTER = 84.2171
MEAN_ANOMALY   = 255.6090

EPHEMERIS_TYPE = 0
CLASSIFICATION_TYPE = U
NORAD_CAT_ID   = 67891
ELEMENT_SET_NO = 999
REV_AT_EPOCH   = 383
BSTAR          = -.79013E-2
MEAN_MOTION_DOT = -.1522248E-1
MEAN_MOTION_DDOT = 0

CCSDS_OMM_VERS = 2.0
CREATION_DATE  = 
ORIGINATOR     = 

OBJECT_NAME    = STARLINK-36813
OBJECT_ID      = 2026-035P
CENTER_NAME    = EARTH
REF_FRAME      = TEME
TIME_SYSTEM    = UTC
MEAN_ELEMENT_THEORY = SGP/SGP4

EPOCH          = 2026-03-10T20:00:00.999360
MEAN_MOTION    = 15.84036843
ECCENTRICITY   = .0001146
INCLINATION    = 97.2664
RA_OF_ASC_NODE = 2.2601
ARG_OF_PERICENTER = 94.0642
MEAN_ANOMALY   = 218.1837

EPHEMERIS_TYPE = 0
CLASSIFICATION_TYPE = U
NORAD_CAT_ID   = 67892
ELEMENT_SET_NO = 999
REV_AT_EPOCH   = 394
BSTAR          = -.69782E-2
MEAN_MOTION_DOT = -.1360925E-1
MEAN_MOTION_DDOT = 0

CCSDS_OMM_VERS = 2.0
CREATION_DATE  = 
ORIGINATOR     = 

OBJECT_NAME    = STARLINK-36803
OBJECT_ID      = 2026-035Q
CENTER_NAME    = EARTH
REF_FRAME      = TEME
TIME_SYSTEM    = UTC
MEAN_ELEMENT_THEORY = SGP/SGP4

EPOCH          = 2026-03-10T20:00:00.999360
MEAN_MOTION    = 15.84555920
ECCENTRICITY   = .0001229
INCLINATION    = 97.2692
RA_OF_ASC_NODE = 2.2514
ARG_OF_PERICENTER = 95.8528
MEAN_ANOMALY   = 188.1317

EPHEMERIS_TYPE = 0
CLASSIFICATION_TYPE = U
NORAD_CAT_ID   = 67893
ELEMENT_SET_NO = 999
REV_AT_EPOCH   = 394
BSTAR          = -.64672E-2
MEAN_MOTION_DOT = -.1301174E-1
MEAN_MOTION_DDOT = 0

CCSDS_OMM_VERS = 2.0
CREATION_DATE  = 
ORIGINATOR     = 

OBJECT_NAME    = STARLINK-36846
OBJECT_ID      = 2026-035R
CENTER_NAME    = EARTH
REF_FRAME      = TEME
TIME_SYSTEM    = UTC
MEAN_ELEMENT_THEORY = SGP/SGP4

EPOCH          = 2026-03-10T20:00:00.999360
MEAN_MOTION    = 15.84319046
ECCENTRICITY   = .0001288
INCLINATION    = 97.2683
RA_OF_ASC_NODE = 2.2551
ARG_OF_PERICENTER = 99.7741
MEAN_ANOMALY   = 193.9802

EPHEMERIS_TYPE = 0
CLASSIFICATION_TYPE = U
NORAD_CAT_ID   = 67894
ELEMENT_SET_NO = 999
REV_AT_EPOCH   = 394
BSTAR          = -.66501E-2
MEAN_MOTION_DOT = -.132028E-1
MEAN_MOTION_DDOT = 0

CCSDS_OMM_VERS = 2.0
CREATION_DATE  = 
ORIGINATOR     = 

OBJECT_NAME    = STARLINK-36866
OBJECT_ID      = 2026-035S
CENTER_NAME    = EARTH
REF_FRAME      = TEME
TIME_SYSTEM    = UTC
MEAN_ELEMENT_THEORY = SGP/SGP4

EPOCH          = 2026-03-10T20:00:00.999360
MEAN_MOTION    = 15.84246459
ECCENTRICITY   = .0001099
INCLINATION    = 97.2682
RA_OF_ASC_NODE = 2.2570
ARG_OF_PERICENTER = 82.3820
MEAN_ANOMALY   = 215.9987

EPHEMERIS_TYPE = 0
CLASSIFICATION_TYPE = U
NORAD_CAT_ID   = 67895
ELEMENT_SET_NO = 999
REV_AT_EPOCH   = 394
BSTAR          = -.66888E-2
MEAN_MOTION_DOT = -.1322864E-1
MEAN_MOTION_DDOT = 0

CCSDS_OMM_VERS = 2.0
CREATION_DATE  = 
ORIGINATOR     = 

OBJECT_NAME    = STARLINK-36877
OBJECT_ID      = 2026-035T
CENTER_NAME    = EARTH
REF_FRAME      = TEME
TIME_SYSTEM    = UTC
MEAN_ELEMENT_THEORY = SGP/SGP4

EPOCH          = 2026-03-10T20:00:00.999360
MEAN_MOTION    = 15.84426205
ECCENTRICITY   = .0001195
INCLINATION    = 97.2685
RA_OF_ASC_NODE = 2.2529
ARG_OF_PERICENTER = 82.9191
MEAN_ANOMALY   = 206.0368

EPHEMERIS_TYPE = 0
CLASSIFICATION_TYPE = U
NORAD_CAT_ID   = 67896
ELEMENT_SET_NO = 999
REV_AT_EPOCH   = 394
BSTAR          = -.65981E-2
MEAN_MOTION_DOT = -.1317077E-1
MEAN_MOTION_DDOT = 0

CCSDS_OMM_VERS = 2.0
CREATION_DATE  = 
ORIGINATOR     = 

OBJECT_NAME    = STARLINK-36870
OBJECT_ID      = 2026-035U
CENTER_NAME    = EARTH
REF_FRAME      = TEME
TIME_SYSTEM    = UTC
MEAN_ELEMENT_THEORY = SGP/SGP4

EPOCH          = 2026-03-10T20:00:00.999360
MEAN_MOTION    = 15.84139018
ECCENTRICITY   = .0001254
INCLINATION    = 97.2675
RA_OF_ASC_NODE = 2.2581
ARG_OF_PERICENTER = 103.2080
MEAN_ANOMALY   = 199.9833

EPHEMERIS_TYPE = 0
CLASSIFICATION_TYPE = U
NORAD_CAT_ID   = 67897
ELEMENT_SET_NO = 999
REV_AT_EPOCH   = 394
BSTAR          = -.68469E-2
MEAN_MOTION_DOT = -.1344285E-1
MEAN_MOTION_DDOT = 0

