STARLINK-36390          
1 67886U 26035H   26069.83334490 -.01180797  00000+0 -57367-2 0  9992
2 67886  97.2712   2.2430 0001245  92.1122 168.7218 15.84775683  3993
STARLINK-36368          
1 67887U 26035J   26069.83334490 -.01230812  00000+0 -60146-2 0  9996
2 67887  97.2710   2.2447 0001195  88.4805 176.9887 15.84759952  3949
STARLINK-36801          
1 67888U 26035K   26069.83334490 -.01272686  00000+0 -62516-2 0  9995
2 67888  97.2704   2.2464 0001282 100.3589 169.6922 15.84739408  3945
STARLINK-36372          
1 67889U 26035L   26069.83334490 -.01298336  00000+0 -64155-2 0  9997
2 67889  97.2693   2.2494 0001283  99.0111 180.0801 15.84670897  3941
STARLINK-36363          
1 67890U 26035M   26069.83334490 -.01284764  00000+0 -63443-2 0  9998
2 67890  97.2703   2.2486 0001396  93.8894 180.9589 15.84654080  3949
STARLINK-36816          
1 67891U 26035N   26069.83334490 -.01522248  00000+0 -79013-2 0  9991
2 67891  97.2667   2.2725 0001257  84.2171 255.6090 15.83632831  3837
STARLINK-36813          
1 67892U 26035P   26069.83334490 -.01360925  00000+0 -69782-2 0  9996
2 67892  97.2664   2.2601 0001146  94.0642 218.1837 15.84036843  3944
STARLINK-36803          
1 67893U 26035Q   26069.83334490 -.01301174  00000+0 -64672-2 0  9991
2 67893  97.2692   2.2514 0001229  95.8528 188.1317 15.84555920  3944
STARLINK-36846          
1 67894U 26035R   26069.83334490 -.01320280  00000+0 -66501-2 0  9994
2 67894  97.2683   2.2551 0001288  99.7741 193.9802 15.84319046  3941
STARLINK-36866          
1 67895U 26035S   26069.83334490 -.01322864  00000+0 -66888-2 0  9993
2 67895  97.2682   2.2570 0001099  82.3820 215.9987 15.84246459  3944
STARLINK-36877          
1 67896U 26035T   26069.83334490 -.01317077  00000+0 -65981-2 0  9997
2 67896  97.2685   2.2529 0001195  82.9191 206.0368 15.84426205  3949
STARLINK-36870          
1 67897U 26035U   26069.83334490 -.01344285  00000+0 -68469-2 0  9993
2 67897  97.2675   2.2581 0001254 103.2080 199.9833 15.84139018  3947
